H1 CPF 01  gfz 2021 01 05 01  5051 terrasarx 
H2 0702601  6201 31698    2021 01 05 00 59 42 2021 01 10 00 00 42   120 1 1  0 0 0
H9
10 0 59222  25902.000000  0    6087163.615  -2249034.500  -2321980.383
10 0 59222  26022.000000  0    5686555.455  -2291654.120  -3150327.462
10 0 59222  26142.000000  0    5186540.848  -2286463.764  -3923396.394
10 0 59222  26262.000000  0    4596776.012  -2231940.056  -4627693.204
10 0 59222  26382.000000  0    3928479.526  -2127600.918  -5250958.610
10 0 59222  26502.000000  0    3194208.393  -1974034.684  -5782374.487
10 0 59222  26622.000000  0    2407615.375  -1772906.704  -6212740.835
10 0 59222  26742.000000  0    1583192.842  -1526944.018  -6534625.031
10 0 59222  26862.000000  0     736004.398  -1239898.108  -6742479.846
10 0 59222  26982.000000  0    -118587.631   -916487.637  -6832728.638
10 0 59222  27102.000000  0    -965195.417   -562321.594  -6803819.751
10 0 59222  27222.000000  0   -1788676.148   -183804.169  -6656250.508
10 0 59222  27342.000000  0   -2574397.008    211978.462  -6392558.793
10 0 59222  27462.000000  0   -3308489.041    617386.593  -6017283.583
10 0 59222  27582.000000  0   -3978088.591   1024369.933  -5536896.142
10 0 59222  27702.000000  0   -4571563.939   1424622.465  -4959699.261
10 0 59222  27822.000000  0   -5078721.978   1809748.098  -4295696.193
10 0 59222  27942.000000  0   -5490991.319   2171434.212  -3556427.271
10 0 59222  28062.000000  0   -5801576.465   2501627.570  -2754777.807
10 0 59222  28182.000000  0   -6005581.265   2792710.332  -1904759.271
10 0 59222  28302.000000  0   -6100097.068   3037671.973  -1021266.008
10 0 59222  28422.000000  0   -6084252.463   3230272.920   -119811.855
10 0 59222  28542.000000  0   -5959222.769   3365194.747    783748.619
10 0 59222  28662.000000  0   -5728196.835   3438172.676   1673507.934
10 0 59222  28782.000000  0   -5396302.735   3446107.648   2533794.720
10 0 59222  28902.000000  0   -4970494.703   3387154.356   3349457.914
10 0 59222  29022.000000  0   -4459404.582   3260783.156   4106140.854
10 0 59222  29142.000000  0   -3873160.517   3067813.937   4790538.382
10 0 59222  29262.000000  0   -3223179.768   2810422.126   5390631.242
10 0 59222  29382.000000  0   -2521939.536   2492117.844   5895896.402
10 0 59222  29502.000000  0   -1782730.557   2117697.103   6297487.594
10 0 59222  29622.000000  0   -1019399.756   1693166.918   6588384.232
10 0 59222  29742.000000  0    -246088.493   1225646.516   6763506.315
10 0 59222  29862.000000  0     523028.887    723246.204   6819797.731
10 0 59222  29982.000000  0    1274004.168    194926.386   6756275.965
10 0 59222  30102.000000  0    1993366.857   -349661.433   6574048.204
10 0 59222  30222.000000  0    2668364.966   -900350.342   6276294.113
10 0 59222  30342.000000  0    3287191.767  -1446646.827   5868214.594
10 0 59222  30462.000000  0    3839195.629  -1977930.314   5356946.693
10 0 59222  30582.000000  0    4315067.419  -2483659.734   4751443.929
10 0 59222  30702.000000  0    4707002.949  -2953583.572   4062325.900
10 0 59222  30822.000000  0    5008838.324  -3377950.359   3301696.693
10 0 59222  30942.000000  0    5216154.160  -3747713.298   2482933.013
10 0 59222  31062.000000  0    5326344.214  -4054724.108   1620446.525
10 0 59222  31182.000000  0    5338647.609  -4291912.591    729426.068
10 0 59222  31302.000000  0    5254144.443  -4453446.164   -174436.552
10 0 59222  31422.000000  0    5075714.046  -4534866.088  -1075231.285
10 0 59222  31542.000000  0    4807956.389  -4533195.540  -1957119.074
10 0 59222  31662.000000  0    4457079.005  -4447017.382  -2804618.341
10 0 59222  31782.000000  0    4030752.827  -4276519.953  -3602882.171
10 0 59222  31902.000000  0    3537941.147  -4023510.040  -4337960.908
10 0 59222  32022.000000  0    2988706.274  -3691393.209  -4997044.383
10 0 59222  32142.000000  0    2393998.753  -3285123.073  -5568679.542
10 0 59222  32262.000000  0    1765435.855  -2811121.550  -6042959.541
10 0 59222  32382.000000  0    1115074.256  -2277173.443  -6411685.323
10 0 59222  32502.000000  0     455178.888  -1692294.862  -6668497.907
10 0 59222  32622.000000  0    -202006.101  -1066578.591  -6808977.203
10 0 59222  32742.000000  0    -844479.670   -411020.904  -6830708.800
10 0 59222  32862.000000  0   -1460697.454    262667.867  -6733320.530
10 0 59222  32982.000000  0   -2039774.630    942267.262  -6518487.545
10 0 59222  33102.000000  0   -2571673.642   1615262.742  -6189906.571
10 0 59222  33222.000000  0   -3047375.289   2269070.454  -5753239.378
10 0 59222  33342.000000  0   -3459031.845   2891268.775  -5216026.223
10 0 59222  33462.000000  0   -3800100.019   3469833.433  -4587567.564
10 0 59222  33582.000000  0   -4065450.310   3993371.085  -3878773.194
10 0 59222  33702.000000  0   -4251448.524   4451346.486  -3101981.503
10 0 59222  33822.000000  0   -4356009.247   4834299.219  -2270752.211
10 0 59222  33942.000000  0   -4378620.396   5134044.073  -1399633.367
10 0 59222  34062.000000  0   -4320337.198   5343851.390   -503906.955
10 0 59222  34182.000000  0   -4183743.495   5458601.320    400684.696
10 0 59222  34302.000000  0   -3972881.449   5474905.992   1298222.063
10 0 59222  34422.000000  0   -3693152.096   5391199.123   2172898.420
10 0 59222  34542.000000  0   -3351187.274   5207786.638   3009308.662
10 0 59222  34662.000000  0   -2954696.094   4926858.853   3792727.959
10 0 59222  34782.000000  0   -2512292.784   4552465.608   4509375.487
10 0 59222  34902.000000  0   -2033308.981   4090454.135   5146659.505
10 0 59222  35022.000000  0   -1527595.593   3548371.164   5693398.463
10 0 59222  35142.000000  0   -1005318.167   2935332.044   6140013.905
10 0 59222  35262.000000  0    -476751.557   2261860.258   6478692.305
10 0 59222  35382.000000  0      47921.513   1539702.283   6703514.856
10 0 59222  35502.000000  0     558806.048    781619.858   6810555.936
10 0 59222  35622.000000  0    1046480.667      1163.384   6797946.339
10 0 59222  35742.000000  0    1502170.145   -787569.078   6665904.326
10 0 59222  35862.000000  0    1917902.869  -1570186.077   6416732.698
10 0 59222  35982.000000  0    2286650.544  -2332264.439   6054781.597
10 0 59222  36102.000000  0    2602448.566  -3059616.020   5586378.002
10 0 59222  36222.000000  0    2860494.556  -3738554.149   5019720.524
10 0 59222  36342.000000  0    3057222.839  -4356154.708   4364741.743
10 0 59222  36462.000000  0    3190354.923  -4900508.361   3632939.196
10 0 59222  36582.000000  0    3258923.277  -5360956.971   2837175.469
10 0 59222  36702.000000  0    3263268.367  -5728309.765   1991451.959
10 0 59222  36822.000000  0    3205007.562  -5995033.240   1110658.988
10 0 59222  36942.000000  0    3086977.986  -6155409.106    210308.251
10 0 59222  37062.000000  0    2913154.984  -6205658.637   -693746.889
10 0 59222  37182.000000  0    2688546.094  -6144028.780  -1585601.001
10 0 59222  37302.000000  0    2419063.558  -5970834.803  -2449584.693
10 0 59222  37422.000000  0    2111380.701  -5688463.340  -3270546.722
10 0 59222  37542.000000  0    1772772.839  -5301333.053  -4034125.096
10 0 59222  37662.000000  0    1410949.830  -4815813.521  -4726997.709
10 0 59222  37782.000000  0    1033885.276  -4240108.610  -5337109.979
10 0 59222  37902.000000  0     649645.013  -3584107.620  -5853877.268
10 0 59222  38022.000000  0     266218.480  -2859206.589  -6268358.702
10 0 59222  38142.000000  0    -108643.303  -2078104.658  -6573400.372
10 0 59222  38262.000000  0    -467580.042  -1254579.549  -6763747.731
10 0 59222  38382.000000  0    -803761.947   -403245.930  -6836127.150
10 0 59222  38502.000000  0   -1111015.491    460700.200  -6789295.666
10 0 59222  38622.000000  0   -1383933.967   1321745.916  -6624059.049
10 0 59222  38742.000000  0   -1617970.380   2164332.968  -6343259.274
10 0 59222  38862.000000  0   -1809511.900   2973131.886  -5951731.649
10 0 59222  38982.000000  0   -1955935.853   3733317.585  -5456231.172
10 0 59222  39102.000000  0   -2055644.989   4430840.217  -4865326.878
10 0 59222  39222.000000  0   -2108082.611   5052688.391  -4189265.192
10 0 59222  39342.000000  0   -2113726.006   5587138.174  -3439801.325
10 0 59222  39462.000000  0   -2074057.687   6023981.896  -2630002.569
10 0 59222  39582.000000  0   -1991515.261   6354733.615  -1774026.159
10 0 59222  39702.000000  0   -1869421.290   6572805.116   -886872.435
10 0 59222  39822.000000  0   -1711893.746   6673646.338     15879.658
10 0 59222  39942.000000  0   -1523739.104   6654849.868    918351.006
10 0 59222  40062.000000  0   -1310330.520   6516211.742   1804652.871
10 0 59222  40182.000000  0   -1077473.422   6259743.554   2659176.993
10 0 59222  40302.000000  0    -831263.280   5889640.905   3466877.498
10 0 59222  40422.000000  0    -577939.363   5412209.956   4213541.066
10 0 59222  40542.000000  0    -323738.263   4835753.177   4886042.424
10 0 59222  40662.000000  0     -74748.536   4170411.919   5472576.530
10 0 59222  40782.000000  0     163227.586   3427979.354   5962860.798
10 0 59222  40902.000000  0     384802.312   2621683.395   6348312.477
10 0 59222  41022.000000  0     585118.724   1765944.062   6622192.415
10 0 59222  41142.000000  0     759953.060    876111.497   6779717.101
10 0 59222  41262.000000  0     905800.780    -31811.302   6818136.213
10 0 59222  41382.000000  0    1019945.312   -941454.907   6736777.948
10 0 59222  41502.000000  0    1100508.276  -1836378.310   6537061.026
10 0 59222  41622.000000  0    1146480.495  -2700365.644   6222471.905
10 0 59222  41742.000000  0    1157733.216  -3517721.534   5798507.943
10 0 59222  41862.000000  0    1135008.669  -4273558.522   5272585.081
10 0 59222  41982.000000  0    1079892.247  -4954070.828   4653913.826
10 0 59222  42102.000000  0     994765.572  -5546793.059   3953345.061
10 0 59222  42222.000000  0     882741.065  -6040838.832   3183183.813
10 0 59222  42342.000000  0     747579.528  -6427110.759   2356973.616
99
